[{"OBJECT_NAME":"KEPLER-21","OBJECT_ID":"2023-054AS","EPOCH":"2026-03-09T19:23:14.157600","MEAN_MOTION":15.73096759,"ECCENTRICITY":0.00048854,"INCLINATION":97.2962,"RA_OF_ASC_NODE":342.626,"ARG_OF_PERICENTER":55.6816,"MEAN_ANOMALY":304.491,"EPHEMERIS_TYPE":0,"CLASSIFICATION_TYPE":"U","NORAD_CAT_ID":56218,"ELEMENT_SET_NO":999,"REV_AT_EPOCH":16349,"BSTAR":0.0005813485,"MEAN_MOTION_DOT":0.00079942,"MEAN_MOTION_DDOT":0},{"OBJECT_NAME":"STARLINK-11646 [DTC]","OBJECT_ID":"2025-048D","EPOCH":"2026-03-09T16:00:03.000096","MEAN_MOTION":15.70744486,"ECCENTRICITY":0.0001349,"INCLINATION":43.0002,"RA_OF_ASC_NODE":319.6761,"ARG_OF_PERICENTER":245.5642,"MEAN_ANOMALY":39.8364,"EPHEMERIS_TYPE":0,"CLASSIFICATION_TYPE":"U","NORAD_CAT_ID":63186,"ELEMENT_SET_NO":999,"REV_AT_EPOCH":599,"BSTAR":0.0012974286,"MEAN_MOTION_DOT":0.00168772,"MEAN_MOTION_DDOT":0}]
